sat20973
1 20973U 90081CF  20046.59186309  .00000169  00000-0  56985-4 0  9995
2 20973  98.4351  90.4376 0049627 109.2660  43.4793 14.48027142534357
